{
    "links": {
        "self": "http://www.neowsapp.com/rest/v1/neo/3819741?api_key=iIulBulltgU6a56xZRHN4H3l9WmuAYTsLGpBGhQ2"
    },
    "id": "3819741",
    "neo_reference_id": "3819741",
    "name": "(2018 JK)",
    "designation": "2018 JK",
    "nasa_jpl_url": "http://ssd.jpl.nasa.gov/sbdb.cgi?sstr=3819741",
    "absolute_magnitude_h": 23.2,
    "estimated_diameter": {
        "kilometers": {
            "estimated_diameter_min": 0.0608912622,
            "estimated_diameter_max": 0.1361570015
        },
        "meters": {
            "estimated_diameter_min": 60.8912622106,
            "estimated_diameter_max": 136.1570015386
        },
        "miles": {
            "estimated_diameter_min": 0.0378360645,
            "estimated_diameter_max": 0.0846040122
        },
        "feet": {
            "estimated_diameter_min": 199.7744887109,
            "estimated_diameter_max": 446.7093369279
        }
    },
    "is_potentially_hazardous_asteroid": false,
    "close_approach_data": [
        {
            "close_approach_date": "2018-05-22",
            "close_approach_date_full": "2018-May-22 12:13",
            "epoch_date_close_approach": 1526991180000,
            "relative_velocity": {
                "kilometers_per_second": "12.4633772268",
                "kilometers_per_hour": "44868.1580164868",
                "miles_per_hour": "27879.3285186332"
            },
            "miss_distance": {
                "astronomical": "0.0418318158",
                "lunar": "16.2725763462",
                "kilometers": "6257950.541912346",
                "miles": "3888510.1541325348"
            },
            "orbiting_body": "Earth"
        }
    ],
    "orbital_data": {
        "orbit_id": "7",
        "orbit_determination_date": "2018-05-17 06:37:57",
        "first_observation_date": "2018-05-05",
        "last_observation_date": "2018-05-17",
        "data_arc_in_days": 12,
        "observations_used": 73,
        "orbit_uncertainty": "8",
        "minimum_orbit_intersection": ".0414462",
        "jupiter_tisserand_invariant": "3.714",
        "epoch_osculation": "2458246.5",
        "eccentricity": ".5257369403241873",
        "semi_major_axis": "1.927655009232094",
        "inclination": "11.51853291297488",
        "ascending_node_longitude": "70.9425762956042",
        "orbital_period": "977.557683748667",
        "perihelion_distance": ".9142155626778199",
        "perihelion_argument": "208.744785718129",
        "aphelion_distance": "2.941094455786368",
        "perihelion_time": "2458290.109316960730",
        "mean_anomaly": "343.9402273984896",
        "mean_motion": ".368264713156873",
        "equinox": "J2000",
        "orbit_class": {
            "orbit_class_type": "APO",
            "orbit_class_description": "Near-Earth asteroid orbits which cross the Earth’s orbit similar to that of 1862 Apollo",
            "orbit_class_range": "a (semi-major axis) > 1.0 AU; q (perihelion) < 1.017 AU"
        }
    },
    "is_sentry_object": false
}